[
    {
        "Altitude(m)": 559025.4812377628,
        "Argument of Periapsis(deg)": 0.033114955553567506,
        "Eccentricity": 0.0,
        "Inclination(deg)": 53.0,
        "Latitude(deg)": 49.312201383748835,
        "Longitude(deg)": 70.35944686691813,
        "Mean Anomaly(deg)": 108.63986433788793,
        "RAAN(deg)": 54.950716842640084,
        "Satellite Name": "Starlink Shell 1 245",
        "Satellite Number": 245,
        "Semi-Major Axis(m)": 6931778.249405717,
        "Time(s)": 950
    },
    {
        "Altitude(m)": 558968.5268478497,
        "Argument of Periapsis(deg)": 0.03346353403307874,
        "Eccentricity": 0.0,
        "Inclination(deg)": 53.0,
        "Latitude(deg)": 49.06327650387959,
        "Longitude(deg)": 71.196271529291,
        "Mean Anomaly(deg)": 109.26669554144466,
        "RAAN(deg)": 54.95019807256261,
        "Satellite Name": "Starlink Shell 1 245",
        "Satellite Number": 245,
        "Semi-Major Axis(m)": 6931778.249405717,
        "Time(s)": 960
    },
    {
        "Altitude(m)": 558910.0684243523,
        "Argument of Periapsis(deg)": 0.03381211251258998,
        "Eccentricity": 0.0,
        "Inclination(deg)": 53.0,
        "Latitude(deg)": 48.807729198645006,
        "Longitude(deg)": 72.02426045221482,
        "Mean Anomaly(deg)": 109.89352674500137,
        "RAAN(deg)": 54.949679302485144,
        "Satellite Name": "Starlink Shell 1 245",
        "Satellite Number": 245,
        "Semi-Major Axis(m)": 6931778.249405717,
        "Time(s)": 970
    },
    {
        "Altitude(m)": 558850.1417471761,
        "Argument of Periapsis(deg)": 0.034160690992101214,
        "Eccentricity": 0.0,
        "Inclination(deg)": 53.0,
        "Latitude(deg)": 48.54568411322183,
        "Longitude(deg)": 72.84335640226843,
        "Mean Anomaly(deg)": 110.52035794855807,
        "RAAN(deg)": 54.94916053240767,
        "Satellite Name": "Starlink Shell 1 245",
        "Satellite Number": 245,
        "Semi-Major Axis(m)": 6931778.249405717,
        "Time(s)": 980
    },
    {
        "Altitude(m)": 558788.7835426228,
        "Argument of Periapsis(deg)": 0.034509269471612446,
        "Eccentricity": 0.0,
        "Inclination(deg)": 53.0,
        "Latitude(deg)": 48.277265932241534,
        "Longitude(deg)": 73.65351565694473,
        "Mean Anomaly(deg)": 111.14718915211478,
        "RAAN(deg)": 54.94864176233019,
        "Satellite Name": "Starlink Shell 1 245",
        "Satellite Number": 245,
        "Semi-Major Axis(m)": 6931778.249405717,
        "Time(s)": 990
    }
]